{
  "type": "FeatureCollection",
  "features": [
    {
      "type": "Feature",
      "properties": {
        "norad_id": 38474,
        "name": "IRIDIUM 33 DEB",
        "group": "iridium-33-debris",
        "lat": -41.972320722221426,
        "lon": 9.52660321487792,
        "alt_km": 747.3758396931426,
        "timestamp": "2025-12-06T09:34:17.300087+00:00",
        "meta_object_name": "IRIDIUM 33 DEB",
        "meta_object_id": "1997-051AAB",
        "meta_epoch": "2025-12-05T20:31:18.420384",
        "meta_mean_motion": 14.50647006,
        "meta_eccentricity": 0.00280558,
        "meta_inclination": 86.3432,
        "meta_ra_of_asc_node": 13.0613,
        "meta_arg_of_pericenter": 109.3616,
        "meta_mean_anomaly": 251.0626,
        "meta_ephemeris_type": 0,
        "meta_classification_type": "U",
        "meta_norad_cat_id": 38474,
        "meta_element_set_no": 999,
        "meta_rev_at_epoch": 65218,
        "meta_bstar": 0.0010134267,
        "meta_mean_motion_dot": 4.017e-05,
        "meta_mean_motion_ddot": 0,
        "tle_line1": "1 38474U 97051AAB 25339.85507431  .00004017  00000+0  10134-2 0  9995",
        "tle_line2": "2 38474  86.3432  13.0613 0028055 109.3616 251.0626 14.50647006652181"
      },
      "geometry": {
        "type": "Point",
        "coordinates": [
          9.52660321487792,
          -41.972320722221426
        ]
      }
    },
    {
      "type": "Feature",
      "properties": {
        "norad_id": 39777,
        "name": "IRIDIUM 33 DEB",
        "group": "iridium-33-debris",
        "lat": -55.54369960739274,
        "lon": 4.026399418781618,
        "alt_km": 675.1849993678024,
        "timestamp": "2025-12-06T09:34:17.300098+00:00",
        "meta_object_name": "IRIDIUM 33 DEB",
        "meta_object_id": "1997-051AAJ",
        "meta_epoch": "2025-12-01T13:02:19.201056",
        "meta_mean_motion": 14.56024465,
        "meta_eccentricity": 0.00595889,
        "meta_inclination": 85.9622,
        "meta_ra_of_asc_node": 180.4732,
        "meta_arg_of_pericenter": 225.0821,
        "meta_mean_anomaly": 134.5543,
        "meta_ephemeris_type": 0,
        "meta_classification_type": "U",
        "meta_norad_cat_id": 39777,
        "meta_element_set_no": 999,
        "meta_rev_at_epoch": 60022,
        "meta_bstar": 0.0022774227,
        "meta_mean_motion_dot": 0.00010294,
        "meta_mean_motion_ddot": 0,
        "tle_line1": "1 39777U 97051AAJ 25335.54327779  .00010294  00000+0  22774-2 0  9996",
        "tle_line2": "2 39777  85.9622 180.4732 0059588 225.0821 134.5543 14.56024465600229"
      },
      "geometry": {
        "type": "Point",
        "coordinates": [
          4.026399418781618,
          -55.54369960739274
        ]
      }
    },
    {
      "type": "Feature",
      "properties": {
        "norad_id": 39778,
        "name": "IRIDIUM 33 DEB",
        "group": "iridium-33-debris",
        "lat": 61.09729025444131,
        "lon": -140.60923527417026,
        "alt_km": 702.9182840479334,
        "timestamp": "2025-12-06T09:34:17.300108+00:00",
        "meta_object_name": "IRIDIUM 33 DEB",
        "meta_object_id": "1997-051AAK",
        "meta_epoch": "2025-12-05T21:28:05.829888",
        "meta_mean_motion": 14.54185643,
        "meta_eccentricity": 0.0008655,
        "meta_inclination": 86.3783,
        "meta_ra_of_asc_node": 46.1971,
        "meta_arg_of_pericenter": 61.9823,
        "meta_mean_anomaly": 298.2259,
        "meta_ephemeris_type": 0,
        "meta_classification_type": "U",
        "meta_norad_cat_id": 39778,
        "meta_element_set_no": 999,
        "meta_rev_at_epoch": 60593,
        "meta_bstar": 0.001574602,
        "meta_mean_motion_dot": 6.686e-05,
        "meta_mean_motion_ddot": 0,
        "tle_line1": "1 39778U 97051AAK 25339.89451192  .00006686  00000+0  15746-2 0  9997",
        "tle_line2": "2 39778  86.3783  46.1971 0008655  61.9823 298.2259 14.54185643605933"
      },
      "geometry": {
        "type": "Point",
        "coordinates": [
          -140.60923527417026,
          61.09729025444131
        ]
      }
    },
    {
      "type": "Feature",
      "properties": {
        "norad_id": 39781,
        "name": "IRIDIUM 33 DEB",
        "group": "iridium-33-debris",
        "lat": -77.43263689554303,
        "lon": -115.95554528010088,
        "alt_km": 703.4311816435829,
        "timestamp": "2025-12-06T09:34:17.300118+00:00",
        "meta_object_name": "IRIDIUM 33 DEB",
        "meta_object_id": "1997-051AAN",
        "meta_epoch": "2025-12-01T14:05:13.737984",
        "meta_mean_motion": 14.20093316,
        "meta_eccentricity": 0.01818611,
        "meta_inclination": 86.3695,
        "meta_ra_of_asc_node": 262.5729,
        "meta_arg_of_pericenter": 308.3699,
        "meta_mean_anomaly": 228.4219,
        "meta_ephemeris_type": 0,
        "meta_classification_type": "U",
        "meta_norad_cat_id": 39781,
        "meta_element_set_no": 999,
        "meta_rev_at_epoch": 7948,
        "meta_bstar": 0.0058998753,
        "meta_mean_motion_dot": 0.00014872,
        "meta_mean_motion_ddot": 0,
        "tle_line1": "1 39781U 97051AAN 25335.58696456  .00014872  00000+0  58999-2 0  9990",
        "tle_line2": "2 39781  86.3695 262.5729 0181861 308.3699 228.4219 14.20093316 79488"
      },
      "geometry": {
        "type": "Point",
        "coordinates": [
          -115.95554528010088,
          -77.43263689554303
        ]
      }
    },
    {
      "type": "Feature",
      "properties": {
        "norad_id": 39783,
        "name": "IRIDIUM 33 DEB",
        "group": "iridium-33-debris",
        "lat": -39.91985720046067,
        "lon": 81.83057363453135,
        "alt_km": 485.367806103307,
        "timestamp": "2025-12-06T09:34:17.300129+00:00",
        "meta_object_name": "IRIDIUM 33 DEB",
        "meta_object_id": "1997-051AAQ",
        "meta_epoch": "2025-11-16T15:05:40.850592",
        "meta_mean_motion": 15.19327111,
        "meta_eccentricity": 0.00057535,
        "meta_inclination": 86.1306,
        "meta_ra_of_asc_node": 268.8004,
        "meta_arg_of_pericenter": 179.9151,
        "meta_mean_anomaly": 1.8316,
        "meta_ephemeris_type": 0,
        "meta_classification_type": "U",
        "meta_norad_cat_id": 39783,
        "meta_element_set_no": 999,
        "meta_rev_at_epoch": 60401,
        "meta_bstar": 0.010398125,
        "meta_mean_motion_dot": 0.00226179,
        "meta_mean_motion_ddot": 0,
        "tle_line1": "1 39783U 97051AAQ 25320.62894503  .00226179  00000+0  10398-1 0  9999",
        "tle_line2": "2 39783  86.1306 268.8004 0005753 179.9151   1.8316 15.19327111604018"
      },
      "geometry": {
        "type": "Point",
        "coordinates": [
          81.83057363453135,
          -39.91985720046067
        ]
      }
    },
    {
      "type": "Feature",
      "properties": {
        "norad_id": 40996,
        "name": "IRIDIUM 33 DEB",
        "group": "iridium-33-debris",
        "lat": 8.264368930994104,
        "lon": -176.15839334992242,
        "alt_km": 583.2849961237453,
        "timestamp": "2025-12-06T09:34:17.300139+00:00",
        "meta_object_name": "IRIDIUM 33 DEB",
        "meta_object_id": "1997-051ABJ",
        "meta_epoch": "2025-12-02T08:31:11.979264",
        "meta_mean_motion": 14.95250831,
        "meta_eccentricity": 0.00120962,
        "meta_inclination": 86.3524,
        "meta_ra_of_asc_node": 6.2584,
        "meta_arg_of_pericenter": 92.2467,
        "meta_mean_anomaly": 284.2756,
        "meta_ephemeris_type": 0,
        "meta_classification_type": "U",
        "meta_norad_cat_id": 40996,
        "meta_element_set_no": 999,
        "meta_rev_at_epoch": 62333,
        "meta_bstar": 0.0031243939,
        "meta_mean_motion_dot": 0.0003457,
        "meta_mean_motion_ddot": 0,
        "tle_line1": "1 40996U 97051ABJ 25336.35499976  .00034570  00000+0  31244-2 0  9995",
        "tle_line2": "2 40996  86.3524   6.2584 0012096  92.2467 284.2756 14.95250831623330"
      },
      "geometry": {
        "type": "Point",
        "coordinates": [
          -176.15839334992242,
          8.264368930994104
        ]
      }
    },
    {
      "type": "Feature",
      "properties": {
        "norad_id": 40998,
        "name": "IRIDIUM 33 DEB",
        "group": "iridium-33-debris",
        "lat": -13.520533736573686,
        "lon": 55.49336302282773,
        "alt_km": 749.0705161900551,
        "timestamp": "2025-12-06T09:34:17.300150+00:00",
        "meta_object_name": "IRIDIUM 33 DEB",
        "meta_object_id": "1997-051ABL",
        "meta_epoch": "2025-12-03T12:06:12.154176",
        "meta_mean_motion": 14.45043538,
        "meta_eccentricity": 0.00095708,
        "meta_inclination": 86.3836,
        "meta_ra_of_asc_node": 57.6004,
        "meta_arg_of_pericenter": 108.6038,
        "meta_mean_anomaly": 309.9308,
        "meta_ephemeris_type": 0,
        "meta_classification_type": "U",
        "meta_norad_cat_id": 40998,
        "meta_element_set_no": 999,
        "meta_rev_at_epoch": 6548,
        "meta_bstar": 0.00081638604,
        "meta_mean_motion_dot": 2.87e-05,
        "meta_mean_motion_ddot": 0,
        "tle_line1": "1 40998U 97051ABL 25337.50430734  .00002870  00000+0  81639-3 0  9994",
        "tle_line2": "2 40998  86.3836  57.6004 0009570 108.6038 309.9308 14.45043538 65487"
      },
      "geometry": {
        "type": "Point",
        "coordinates": [
          55.49336302282773,
          -13.520533736573686
        ]
      }
    }
  ]
}